TEVEL2-5                
1 63214U 25052E   26068.96660006  .00021339  00000+0  71765-3 0  9991
2 63214  97.4013 325.3677 0004700  95.3936 264.7842 15.30817434 54919
STARLINK-35325          
1 66080U 25235Y   26068.76605585  .00021523  00000+0  73661-3 0  9999
2 66080  53.1588 244.8772 0000904  86.5522 273.5582 15.30203606 22931
